[{"OBJECT_NAME":"STARLINK-1557","OBJECT_ID":"2020-055H","EPOCH":"2026-03-10T00:00:02.999808","MEAN_MOTION":15.2035016,"ECCENTRICITY":0.0001718,"INCLINATION":53.1122,"RA_OF_ASC_NODE":124.7429,"ARG_OF_PERICENTER":94.4179,"MEAN_ANOMALY":143.9555,"EPHEMERIS_TYPE":0,"CLASSIFICATION_TYPE":"U","NORAD_CAT_ID":46034,"ELEMENT_SET_NO":999,"REV_AT_EPOCH":578,"BSTAR":0.0055116646,"MEAN_MOTION_DOT":0.00123185,"MEAN_MOTION_DDOT":0},{"OBJECT_NAME":"ORBASTRO-TR5","OBJECT_ID":"2025-052AC","EPOCH":"2026-03-09T16:13:44.206176","MEAN_MOTION":15.21342195,"ECCENTRICITY":0.00056631,"INCLINATION":97.3978,"RA_OF_ASC_NODE":322.1193,"ARG_OF_PERICENTER":133.5462,"MEAN_ANOMALY":226.6245,"EPHEMERIS_TYPE":0,"CLASSIFICATION_TYPE":"U","NORAD_CAT_ID":63236,"ELEMENT_SET_NO":999,"REV_AT_EPOCH":5468,"BSTAR":0.00031434334,"MEAN_MOTION_DOT":6.976e-5,"MEAN_MOTION_DDOT":0}]
